GOES 16                 
1 41866U 16071A   22013.84264063 -.00000234  00000-0  00000-0 0  9991
2 41866   0.0783 248.2275 0001000  70.8885  22.3151  1.00273064 18918
